start=new Date('2021-09-02T00:00:00.000Z').valueOf();
sats=[{"GP_ID":"183875836","BSTAR":"0.00012447000000","MEAN_ELEMENT_THEORY":"SGP4","COUNTRY_CODE":"US","FILE":"3106942","REF_FRAME":"TEME","MEAN_MOTION_DOT":"0.00001572","LAUNCH_DATE":"2020-01-07","MEAN_ANOMALY":"295.7862","RA_OF_ASC_NODE":"175.3555","PERIAPSIS":"546.133","NORAD_CAT_ID":"44940","OBJECT_ID":"2020-001AC","DECAY_DATE":null,"EPHEMERIS_TYPE":"0","TLE_LINE2":"2 44940  53.0539 175.3555 0001617  64.3294 295.7862 15.06387317 91372","ARG_OF_PERICENTER":"64.3294","CLASSIFICATION_TYPE":"U","INCLINATION":"53.0539","TLE_LINE1":"1 44940U 20001AC  21244.33485571  .00001572  00000-0  12447-3 0  9999","TIME_SYSTEM":"UTC","RCS_SIZE":"LARGE","MEAN_MOTION_DDOT":"0.0000000000000","OBJECT_NAME":"STARLINK-1091","SITE":"AFETR","CENTER_NAME":"EARTH","ELEMENT_SET_NO":"999","REV_AT_EPOCH":"9137","MEAN_MOTION":"15.06387317","PERIOD":"95.593","OBJECT_TYPE":"PAYLOAD","ECCENTRICITY":"0.00016170","EPOCH":"2021-09-01T08:02:11.533344","SEMIMAJOR_AXIS":"6925.387","APOAPSIS":"548.372"},{"OBJECT_ID":"2020-001AD","NORAD_CAT_ID":"44941","EPHEMERIS_TYPE":"0","DECAY_DATE":null,"RA_OF_ASC_NODE":"172.8735","MEAN_ANOMALY":"303.9144","PERIAPSIS":"545.976","MEAN_MOTION_DOT":"0.00001609","REF_FRAME":"TEME","FILE":"3107096","LAUNCH_DATE":"2020-01-07","BSTAR":"0.00012696000000","GP_ID":"183926108","COUNTRY_CODE":"US","MEAN_ELEMENT_THEORY":"SGP4","SEMIMAJOR_AXIS":"6925.385","APOAPSIS":"548.524","PERIOD":"95.593","OBJECT_TYPE":"PAYLOAD","EPOCH":"2021-09-01T21:18:21.370176","ECCENTRICITY":"0.00018400","REV_AT_EPOCH":"9146","ELEMENT_SET_NO":"999","CENTER_NAME":"EARTH","SITE":"AFETR","OBJECT_NAME":"STARLINK-1094","MEAN_MOTION_DDOT":"0.0000000000000","MEAN_MOTION":"15.06388097","TIME_SYSTEM":"UTC","TLE_LINE1":"1 44941U 20001AD  21244.88774734  .00001609  00000-0  12696-3 0  9999","INCLINATION":"53.0541","CLASSIFICATION_TYPE":"U","ARG_OF_PERICENTER":"56.2020","TLE_LINE2":"2 44941  53.0541 172.8735 0001840  56.2020 303.9144 15.06388097 91464","RCS_SIZE":"LARGE"},{"LAUNCH_DATE":"2020-01-07","FILE":"3107096","REF_FRAME":"TEME","MEAN_MOTION_DOT":"0.00000771","MEAN_ELEMENT_THEORY":"SGP4","COUNTRY_CODE":"US","GP_ID":"183924357","BSTAR":"0.00007062900000","DECAY_DATE":null,"EPHEMERIS_TYPE":"0","NORAD_CAT_ID":"44942","OBJECT_ID":"2020-001AE","PERIAPSIS":"546.090","MEAN_ANOMALY":"283.1564","RA_OF_ASC_NODE":"173.2428","MEAN_MOTION":"15.06396763","MEAN_MOTION_DDOT":"0.0000000000000","OBJECT_NAME":"STARLINK-1096","SITE":"AFETR","CENTER_NAME":"EARTH","ELEMENT_SET_NO":"999","REV_AT_EPOCH":"9145","RCS_SIZE":"LARGE","TLE_LINE2":"2 44942  53.0555 173.2428 0001637  76.9607 283.1564 15.06396763 91451","ARG_OF_PERICENTER":"76.9607","CLASSIFICATION_TYPE":"U","INCLINATION":"53.0555","TIME_SYSTEM":"UTC","TLE_LINE1":"1 44942U 20001AE  21244.80663968  .00000771  00000-0  70629-4 0  9998","APOAPSIS":"548.357","SEMIMAJOR_AXIS":"6925.358","ECCENTRICITY":"0.00016370","EPOCH":"2021-09-01T19:21:33.668352","PERIOD":"95.592","OBJECT_TYPE":"PAYLOAD"},{"COUNTRY_CODE":"US","MEAN_ELEMENT_THEORY":"SGP4","BSTAR":"0.00010942000000","GP_ID":"183925106","LAUNCH_DATE":"2020-01-07","MEAN_MOTION_DOT":"0.00001348","REF_FRAME":"TEME","FILE":"3107096","PERIAPSIS":"545.905","RA_OF_ASC_NODE":"173.0462","MEAN_ANOMALY":"290.6129","EPHEMERIS_TYPE":"0","DECAY_DATE":null,"OBJECT_ID":"2020-001AF","NORAD_CAT_ID":"44943","RCS_SIZE":"LARGE","TLE_LINE1":"1 44943U 20001AF  21244.85087172  .00001348  00000-0  10942-3 0  9993","TIME_SYSTEM":"UTC","CLASSIFICATION_TYPE":"U","INCLINATION":"53.0560","ARG_OF_PERICENTER":"69.5063","TLE_LINE2":"2 44943  53.0560 173.0462 0001892  69.5063 290.6129 15.06399510 91454","MEAN_MOTION":"15.06399510","REV_AT_EPOCH":"9145","ELEMENT_SET_NO":"999","SITE":"AFETR","CENTER_NAME":"EARTH","OBJECT_NAME":"STARLINK-1100","MEAN_MOTION_DDOT":"0.0000000000000","EPOCH":"2021-09-01T20:25:15.316608","ECCENTRICITY":"0.00018920","PERIOD":"95.592","OBJECT_TYPE":"PAYLOAD","APOAPSIS":"548.525","SEMIMAJOR_AXIS":"6925.350"},{"COUNTRY_CODE":"US","MEAN_ELEMENT_THEORY":"SGP4","BSTAR":"0.00007122100000","GP_ID":"183925855","LAUNCH_DATE":"2020-01-07","MEAN_MOTION_DOT":"0.00000779","REF_FRAME":"TEME","FILE":"3107096","PERIAPSIS":"545.928","RA_OF_ASC_NODE":"173.1228","MEAN_ANOMALY":"296.9905","EPHEMERIS_TYPE":"0","DECAY_DATE":null,"OBJECT_ID":"2020-001AG","NORAD_CAT_ID":"44944","RCS_SIZE":"LARGE","TLE_LINE1":"1 44944U 20001AG  21244.83244024  .00000779  00000-0  71221-4 0  9998","TIME_SYSTEM":"UTC","CLASSIFICATION_TYPE":"U","INCLINATION":"53.0538","ARG_OF_PERICENTER":"63.1274","TLE_LINE2":"2 44944  53.0538 173.1228 0001862  63.1274 296.9905 15.06398854 91453","MEAN_MOTION":"15.06398854","REV_AT_EPOCH":"9145","ELEMENT_SET_NO":"999","CENTER_NAME":"EARTH","SITE":"AFETR","OBJECT_NAME":"STARLINK-1108","MEAN_MOTION_DDOT":"0.0000000000000","EPOCH":"2021-09-01T19:58:42.836736","ECCENTRICITY":"0.00018620","OBJECT_TYPE":"PAYLOAD","PERIOD":"95.592","APOAPSIS":"548.507","SEMIMAJOR_AXIS":"6925.352"},{"RA_OF_ASC_NODE":"175.3741","MEAN_ANOMALY":"302.6306","PERIAPSIS":"546.196","NORAD_CAT_ID":"44945","OBJECT_ID":"2020-001AH","DECAY_DATE":null,"EPHEMERIS_TYPE":"0","BSTAR":"0.00002545100000","GP_ID":"183876075","MEAN_ELEMENT_THEORY":"SGP4","COUNTRY_CODE":"US","MEAN_MOTION_DOT":"0.00000097","FILE":"3106942","REF_FRAME":"TEME","LAUNCH_DATE":"2020-01-07","PERIOD":"95.593","OBJECT_TYPE":"PAYLOAD","ECCENTRICITY":"0.00015460","EPOCH":"2021-09-01T07:56:54.020256","SEMIMAJOR_AXIS":"6925.402","APOAPSIS":"548.338","INCLINATION":"53.0535","CLASSIFICATION_TYPE":"U","TLE_LINE1":"1 44945U 20001AH  21244.33118079  .00000097  00000-0  25451-4 0  9991","TIME_SYSTEM":"UTC","TLE_LINE2":"2 44945  53.0535 175.3741 0001546  57.4832 302.6306 15.06382565 91373","ARG_OF_PERICENTER":"57.4832","RCS_SIZE":"LARGE","SITE":"AFETR","CENTER_NAME":"EARTH","REV_AT_EPOCH":"9137","ELEMENT_SET_NO":"999","MEAN_MOTION_DDOT":"0.0000000000000","OBJECT_NAME":"STARLINK-1109","MEAN_MOTION":"15.06382565"},{"RCS_SIZE":"LARGE","TLE_LINE2":"2 44946  53.0028 173.6322 0002323  48.1057 312.0130 15.07749866 91368","ARG_OF_PERICENTER":"48.1057","CLASSIFICATION_TYPE":"U","INCLINATION":"53.0028","TIME_SYSTEM":"UTC","TLE_LINE1":"1 44946U 20001AJ  21244.06535621  .00004709  00000-0  32300-3 0  9992","MEAN_MOTION":"15.07749866","MEAN_MOTION_DDOT":"0.0000000000000","OBJECT_NAME":"STARLINK-1110","CENTER_NAME":"EARTH","SITE":"AFETR","ELEMENT_SET_NO":"999","REV_AT_EPOCH":"9136","ECCENTRICITY":"0.00023230","EPOCH":"2021-09-01T01:34:06.776544","PERIOD":"95.507","OBJECT_TYPE":"PAYLOAD","APOAPSIS":"544.687","SEMIMAJOR_AXIS":"6921.214","MEAN_ELEMENT_THEORY":"SGP4","COUNTRY_CODE":"US","GP_ID":"183874340","BSTAR":"0.00032300000000","LAUNCH_DATE":"2020-01-07","FILE":"3106942","REF_FRAME":"TEME","MEAN_MOTION_DOT":"0.00004709","PERIAPSIS":"541.472","MEAN_ANOMALY":"312.0130","RA_OF_ASC_NODE":"173.6322","DECAY_DATE":null,"EPHEMERIS_TYPE":"0","NORAD_CAT_ID":"44946","OBJECT_ID":"2020-001AJ"},{"MEAN_ELEMENT_THEORY":"SGP4","COUNTRY_CODE":"US","BSTAR":"0.00014533000000","GP_ID":"183924607","LAUNCH_DATE":"2020-01-07","MEAN_MOTION_DOT":"0.00001883","FILE":"3107096","REF_FRAME":"TEME","PERIAPSIS":"546.011","RA_OF_ASC_NODE":"173.1869","MEAN_ANOMALY":"294.7943","DECAY_DATE":null,"EPHEMERIS_TYPE":"0","NORAD_CAT_ID":"44947","OBJECT_ID":"2020-001AK","RCS_SIZE":"LARGE","CLASSIFICATION_TYPE":"U","INCLINATION":"53.0536","TIME_SYSTEM":"UTC","TLE_LINE1":"1 44947U 20001AK  21244.81771007  .00001883  00000-0  14533-3 0  9994","TLE_LINE2":"2 44947  53.0536 173.1869 0001774  65.3231 294.7943 15.06391628 91454","ARG_OF_PERICENTER":"65.3231","MEAN_MOTION":"15.06391628","SITE":"AFETR","CENTER_NAME":"EARTH","REV_AT_EPOCH":"9145","ELEMENT_SET_NO":"999","MEAN_MOTION_DDOT":"0.0000000000000","OBJECT_NAME":"STARLINK-1116","ECCENTRICITY":"0.00017740","EPOCH":"2021-09-01T19:37:30.150048","OBJECT_TYPE":"PAYLOAD","PERIOD":"95.593","APOAPSIS":"548.468","SEMIMAJOR_AXIS":"6925.374"},{"CENTER_NAME":"EARTH","SITE":"AFETR","ELEMENT_SET_NO":"999","REV_AT_EPOCH":"9137","MEAN_MOTION_DDOT":"0.0000000000000","OBJECT_NAME":"STARLINK-1122","MEAN_MOTION":"15.06396737","CLASSIFICATION_TYPE":"U","INCLINATION":"53.0553","TIME_SYSTEM":"UTC","TLE_LINE1":"1 44949U 20001AM  21244.31272435  .00001678  00000-0  13155-3 0  9993","TLE_LINE2":"2 44949  53.0553 175.4550 0001658  60.8122 299.3033 15.06396737 91375","ARG_OF_PERICENTER":"60.8122","RCS_SIZE":"LARGE","SEMIMAJOR_AXIS":"6925.359","APOAPSIS":"548.372","PERIOD":"95.592","OBJECT_TYPE":"PAYLOAD","ECCENTRICITY":"0.00016580","EPOCH":"2021-09-01T07:30:19.383840","MEAN_MOTION_DOT":"0.00001678","FILE":"3106942","REF_FRAME":"TEME","LAUNCH_DATE":"2020-01-07","BSTAR":"0.00013155000000","GP_ID":"183875837","MEAN_ELEMENT_THEORY":"SGP4","COUNTRY_CODE":"US","NORAD_CAT_ID":"44949","OBJECT_ID":"2020-001AM","DECAY_DATE":null,"EPHEMERIS_TYPE":"0","RA_OF_ASC_NODE":"175.4550","MEAN_ANOMALY":"299.3033","PERIAPSIS":"546.075"},{"TLE_LINE2":"2 44950  53.0555 175.3932 0001692  65.0976 295.0189 15.06402176 91374","ARG_OF_PERICENTER":"65.0976","INCLINATION":"53.0555","CLASSIFICATION_TYPE":"U","TLE_LINE1":"1 44950U 20001AN  21244.32748454  .00001570  00000-0  12428-3 0  9998","TIME_SYSTEM":"UTC","RCS_SIZE":"LARGE","MEAN_MOTION_DDOT":"0.0000000000000","OBJECT_NAME":"STARLINK-1125","CENTER_NAME":"EARTH","SITE":"AFETR","ELEMENT_SET_NO":"999","REV_AT_EPOCH":"9137","MEAN_MOTION":"15.06402176","OBJECT_TYPE":"PAYLOAD","PERIOD":"95.592","ECCENTRICITY":"0.00016920","EPOCH":"2021-09-01T07:51:34.664256","SEMIMAJOR_AXIS":"6925.342","APOAPSIS":"548.379","GP_ID":"183875576","BSTAR":"0.00012428000000","MEAN_ELEMENT_THEORY":"SGP4","COUNTRY_CODE":"US","FILE":"3106942","REF_FRAME":"TEME","MEAN_MOTION_DOT":"0.00001570","LAUNCH_DATE":"2020-01-07","MEAN_ANOMALY":"295.0189","RA_OF_ASC_NODE":"175.3932","PERIAPSIS":"546.035","NORAD_CAT_ID":"44950","OBJECT_ID":"2020-001AN","DECAY_DATE":null,"EPHEMERIS_TYPE":"0"}];
